{
    "links": {
        "self": "http://www.neowsapp.com/rest/v1/neo/3597099?api_key=iIulBulltgU6a56xZRHN4H3l9WmuAYTsLGpBGhQ2"
    },
    "id": "3597099",
    "neo_reference_id": "3597099",
    "name": "(2012 CA)",
    "designation": "2012 CA",
    "nasa_jpl_url": "http://ssd.jpl.nasa.gov/sbdb.cgi?sstr=3597099",
    "absolute_magnitude_h": 23.5,
    "estimated_diameter": {
        "kilometers": {
            "estimated_diameter_min": 0.0530340723,
            "estimated_diameter_max": 0.1185877909
        },
        "meters": {
            "estimated_diameter_min": 53.0340723319,
            "estimated_diameter_max": 118.5877908577
        },
        "miles": {
            "estimated_diameter_min": 0.0329538346,
            "estimated_diameter_max": 0.0736870142
        },
        "feet": {
            "estimated_diameter_min": 173.9963058693,
            "estimated_diameter_max": 389.0675677576
        }
    },
    "is_potentially_hazardous_asteroid": false,
    "close_approach_data": [
        {
            "close_approach_date": "2007-04-30",
            "close_approach_date_full": "2007-Apr-30 12:03",
            "epoch_date_close_approach": 1177934580000,
            "relative_velocity": {
                "kilometers_per_second": "15.6934666021",
                "kilometers_per_hour": "56496.4797674358",
                "miles_per_hour": "35104.7154421603"
            },
            "miss_distance": {
                "astronomical": "0.0124136464",
                "lunar": "4.8289084496",
                "kilometers": "1857055.060373168",
                "miles": "1153920.5065109984"
            },
            "orbiting_body": "Mars"
        },
        {
            "close_approach_date": "2012-01-31",
            "close_approach_date_full": "2012-Jan-31 03:57",
            "epoch_date_close_approach": 1327982220000,
            "relative_velocity": {
                "kilometers_per_second": "18.8733388598",
                "kilometers_per_hour": "67944.0198953837",
                "miles_per_hour": "42217.771695551"
            },
            "miss_distance": {
                "astronomical": "0.0908548944",
                "lunar": "35.3425539216",
                "kilometers": "13591698.681314928",
                "miles": "8445489.9379968864"
            },
            "orbiting_body": "Earth"
        }
    ],
    "orbital_data": {
        "orbit_id": "7",
        "orbit_determination_date": "2017-04-06 08:51:04",
        "first_observation_date": "2012-02-01",
        "last_observation_date": "2012-02-18",
        "data_arc_in_days": 17,
        "observations_used": 28,
        "orbit_uncertainty": "8",
        "minimum_orbit_intersection": ".0908468",
        "jupiter_tisserand_invariant": "4.960",
        "epoch_osculation": "2455961.5",
        "eccentricity": ".1626139678063611",
        "semi_major_axis": "1.245490254254589",
        "inclination": "35.89542612666657",
        "ascending_node_longitude": "131.5313631993934",
        "orbital_period": "507.7020620141708",
        "perihelion_distance": "1.042956142146097",
        "perihelion_argument": "320.6306695816636",
        "aphelion_distance": "1.448024366363082",
        "perihelion_time": "2455918.627528012469",
        "mean_anomaly": "30.39989606164012",
        "mean_motion": ".7090772855477427",
        "equinox": "J2000",
        "orbit_class": {
            "orbit_class_type": "AMO",
            "orbit_class_description": "Near-Earth asteroid orbits similar to that of 1221 Amor",
            "orbit_class_range": "1.017 AU < q (perihelion) < 1.3 AU"
        }
    },
    "is_sentry_object": false
}